{"type" : "FeatureCollection", "name" : "Patrimoine", "features" : [
{"type":"Feature", "properties":{"num_coordonnee":"000000098", "HP1":"0001", "HP2":"", "HP3":"", "NB_UG":"0", "NUMERO":"", "RUE":"", "LOC":"VILLEURBANNE", "CODE_POSTAL":"69100", "LIBELLE":"EMILE ZOLA"}, "geometry":{"type":"Point", "coordinates":[4.877101, 45.770057]}},
{"type":"Feature", "properties":{"num_coordonnee":"000000100", "HP1":"0001", "HP2":"01", "HP3":"01", "NB_UG":"16", "NUMERO":"143", "RUE":"COURS EMILE ZOLA", "LOC":"VILLEURBANNE", "CODE_POSTAL":"69100", "LIBELLE":"EMILE ZOLA 143, E.ZOLA"}, "geometry":{"type":"Point", "coordinates":[4.877315, 45.770018]}},
{"type":"Feature", "properties":{"num_coordonnee":"000000101", "HP1":"0001", "HP2":"01", "HP3":"02", "NB_UG":"21", "NUMERO":"145", "RUE":"COURS EMILE ZOLA", "LOC":"VILLEURBANNE", "CODE_POSTAL":"69100", "LIBELLE":"EMILE ZOLA 145, E.ZOLA"}, "geometry":{"type":"Point", "coordinates":[4.877402, 45.770002]}},
{"type":"Feature", "properties":{"num_coordonnee":"000000103", "HP1":"0001", "HP2":"02", "HP3":"01", "NB_UG":"20", "NUMERO":"147", "RUE":"COURS EMILE ZOLA", "LOC":"VILLEURBANNE", "CODE_POSTAL":"69100", "LIBELLE":"EMILE ZOLA 147, E.ZOLA"}, "geometry":{"type":"Point", "coordinates":[4.8773224, 45.7700499]}},
{"type":"Feature", "properties":{"num_coordonnee":"000000104", "HP1":"0001", "HP2":"02", "HP3":"02", "NB_UG":"16", "NUMERO":"149", "RUE":"COURS EMILE ZOLA", "LOC":"VILLEURBANNE", "CODE_POSTAL":"69100", "LIBELLE":"EMILE ZOLA 149, E.ZOLA"}, "geometry":{"type":"Point", "coordinates":[4.8775692, 45.7700456]}},

{"type":"Feature", "properties":{"num_coordonnee":"000000111", "HP1":"0002", "HP2":"", "HP3":"", "NB_UG":"0", "NUMERO":"", "RUE":"", "LOC":"VILLEURBANNE", "CODE_POSTAL":"69100", "LIBELLE":"MICHEL SERVET"}, "geometry":{"type":"Point", "coordinates":[4.8786878, 45.7673815]}},
{"type":"Feature", "properties":{"num_coordonnee":"000000113", "HP1":"0002", "HP2":"01", "HP3":"01", "NB_UG":"10", "NUMERO":"22", "RUE":"RUE MICHEL SERVET", "LOC":"VILLEURBANNE", "CODE_POSTAL":"69100", "LIBELLE":"MICHEL SERVET 22, SERVET"}, "geometry":{"type":"Point", "coordinates":[4.8787959, 45.76786389]}},
{"type":"Feature", "properties":{"num_coordonnee":"000000114", "HP1":"0002", "HP2":"01", "HP3":"02", "NB_UG":"16", "NUMERO":"24", "RUE":"RUE MICHEL SERVET", "LOC":"VILLEURBANNE", "CODE_POSTAL":"69100", "LIBELLE":"MICHEL SERVET 24, SERVET"}, "geometry":{"type":"Point", "coordinates":[4.8786736, 45.76779]}},
{"type":"Feature", "properties":{"num_coordonnee":"000000116", "HP1":"0002", "HP2":"02", "HP3":"01", "NB_UG":"17", "NUMERO":"28", "RUE":"RUE MICHEL SERVET", "LOC":"VILLEURBANNE", "CODE_POSTAL":"69100", "LIBELLE":"MICHEL SERVET 28, SERVET"}, "geometry":{"type":"Point", "coordinates":[4.8786877, 45.7673812]}},
{"type":"Feature", "properties":{"num_coordonnee":"000000117", "HP1":"0002", "HP2":"02", "HP3":"02", "NB_UG":"12", "NUMERO":"30", "RUE":"RUE MICHEL SERVET", "LOC":"VILLEURBANNE", "CODE_POSTAL":"69100", "LIBELLE":"MICHEL SERVET 30, SERVET"}, "geometry":{"type":"Point", "coordinates":[4.878687, 45.767381]}},

{"type":"Feature", "properties":{"num_coordonnee":"000000125", "HP1":"0003", "HP2":"", "HP3":"", "NB_UG":"0", "NUMERO":"", "RUE":"", "LOC":"VILLEURBANNE", "CODE_POSTAL":"69100", "LIBELLE":"BOUVIER 1"}, "geometry":{"type":"Point", "coordinates":[4.890192, 45.779399]}},
{"type":"Feature", "properties":{"num_coordonnee":"000000127", "HP1":"0003", "HP2":"01", "HP3":"01", "NB_UG":"20", "NUMERO":"6/8", "RUE":"RUE PROF EMILE BOUVIER", "LOC":"VILLEURBANNE", "CODE_POSTAL":"69100", "LIBELLE":"BOUVIER 1 6/8, E.BOUVIER"}, "geometry":{"type":"Point", "coordinates":[4.8901929, 45.7793998]}},
{"type":"Feature", "properties":{"num_coordonnee":"000000129", "HP1":"0003", "HP2":"02", "HP3":"01", "NB_UG":"20", "NUMERO":"5/7", "RUE":"RUE PROF EMILE BOUVIER", "LOC":"VILLEURBANNE", "CODE_POSTAL":"69100", "LIBELLE":"BOUVIER 1 5/7, E.BOUVIER"}, "geometry":{"type":"Point", "coordinates":[4.8902573, 45.7792126]}},

{"type":"Feature", "properties":{"num_coordonnee":"000000130", "HP1":"0004", "HP2":"", "HP3":"", "NB_UG":"0", "NUMERO":"", "RUE":"", "LOC":"VILLEURBANNE", "CODE_POSTAL":"69100", "LIBELLE":"MULHOUSE"}, "geometry":{"type":"Point", "coordinates":[4.896797, 45.7738192]}},
{"type":"Feature", "properties":{"num_coordonnee":"000000132", "HP1":"0004", "HP2":"01", "HP3":"01", "NB_UG":"8", "NUMERO":"26", "RUE":"RUE GEORGES PICOT", "LOC":"VILLEURBANNE", "CODE_POSTAL":"69100", "LIBELLE":"MULHOUSE 26, G.PICOT"}, "geometry":{"type":"Point", "coordinates":[4.8969775, 45.7738654]}},
{"type":"Feature", "properties":{"num_coordonnee":"000000133", "HP1":"0004", "HP2":"01", "HP3":"02", "NB_UG":"8", "NUMERO":"28", "RUE":"RUE GEORGES PICOT", "LOC":"VILLEURBANNE", "CODE_POSTAL":"69100", "LIBELLE":"MULHOUSE 28, G.PICOT"}, "geometry":{"type":"Point", "coordinates":[4.8967971, 45.7738192]}},
{"type":"Feature", "properties":{"num_coordonnee":"000000137", "HP1":"0004", "HP2":"50", "HP3":"01", "NB_UG":"0", "NUMERO":"17", "RUE":"RUE DE MULHOUSE", "LOC":"VILLEURBANNE", "CODE_POSTAL":"69100", "LIBELLE":"MULHOUSE 17, MULHOUSE"}, "geometry":{"type":"Point", "coordinates":[4.8967505, 45.7735902]}},

{"type":"Feature", "properties":{"num_coordonnee":"000000138", "HP1":"0005", "HP2":"", "HP3":"", "NB_UG":"0", "NUMERO":"", "RUE":"", "LOC":"VILLEURBANNE", "CODE_POSTAL":"69100", "LIBELLE":"BONNETERRE"}, "geometry":{"type":"Point", "coordinates":[4.884342, 45.763521]}},
{"type":"Feature", "properties":{"num_coordonnee":"000000140", "HP1":"0005", "HP2":"01", "HP3":"01", "NB_UG":"8", "NUMERO":"14", "RUE":"AV AUGUSTE BLANQUI", "LOC":"VILLEURBANNE", "CODE_POSTAL":"69100", "LIBELLE":"BONNETERRE 14,A.BLANQUI"}, "geometry":{"type":"Point", "coordinates":[4.8843429, 45.7635212]}},
{"type":"Feature", "properties":{"num_coordonnee":"000000141", "HP1":"0005", "HP2":"01", "HP3":"02", "NB_UG":"8", "NUMERO":"16", "RUE":"AV AUGUSTE BLANQUI", "LOC":"VILLEURBANNE", "CODE_POSTAL":"69100", "LIBELLE":"BONNETERRE 16,A.BLANQUI"}, "geometry":{"type":"Point", "coordinates":[4.884342, 45.7635212]}},
{"type":"Feature", "properties":{"num_coordonnee":"000000142", "HP1":"0005", "HP2":"01", "HP3":"03", "NB_UG":"8", "NUMERO":"18", "RUE":"AV AUGUSTE BLANQUI", "LOC":"VILLEURBANNE", "CODE_POSTAL":"69100", "LIBELLE":"BONNETERRE 18,A.BLANQUI"}, "geometry":{"type":"Point", "coordinates":[4.8843429, 45.763521]}},
{"type":"Feature", "properties":{"num_coordonnee":"000000144", "HP1":"0005", "HP2":"02", "HP3":"01", "NB_UG":"10", "NUMERO":"21", "RUE":"RUE DOCTEUR PAPILLON", "LOC":"VILLEURBANNE", "CODE_POSTAL":"69100", "LIBELLE":"BONNETERRE 21,PAPILLON"}, "geometry":{"type":"Point", "coordinates":[4.8832772, 45.7634721]}},
{"type":"Feature", "properties":{"num_coordonnee":"000000145", "HP1":"0005", "HP2":"02", "HP3":"02", "NB_UG":"10", "NUMERO":"23", "RUE":"RUE DOCTEUR PAPILLON", "LOC":"VILLEURBANNE", "CODE_POSTAL":"69100", "LIBELLE":"BONNETERRE 23,PAPILLON"}, "geometry":{"type":"Point", "coordinates":[4.8832283, 45.7630569]}},
{"type":"Feature", "properties":{"num_coordonnee":"000000146", "HP1":"0005", "HP2":"02", "HP3":"03", "NB_UG":"10", "NUMERO":"25", "RUE":"RUE DOCTEUR PAPILLON", "LOC":"VILLEURBANNE", "CODE_POSTAL":"69100", "LIBELLE":"BONNETERRE 25,PAPILLON"}, "geometry":{"type":"Point", "coordinates":[4.8832499, 45.7626435]}},
{"type":"Feature", "properties":{"num_coordonnee":"000000148", "HP1":"0005", "HP2":"03", "HP3":"01", "NB_UG":"17", "NUMERO":"26", "RUE":"RUE DU NORD", "LOC":"VILLEURBANNE", "CODE_POSTAL":"69100", "LIBELLE":"BONNETERRE 26,R.DU NORD"}, "geometry":{"type":"Point", "coordinates":[4.8835518, 45.76369380]}},
{"type":"Feature", "properties":{"num_coordonnee":"000000149", "HP1":"0005", "HP2":"03", "HP3":"02", "NB_UG":"17", "NUMERO":"28", "RUE":"RUE DU NORD", "LOC":"VILLEURBANNE", "CODE_POSTAL":"69100", "LIBELLE":"BONNETERRE 28,R.DU NORD"}, "geometry":{"type":"Point", "coordinates":[4.883791, 45.7637074]}},
{"type":"Feature", "properties":{"num_coordonnee":"000000150", "HP1":"0005", "HP2":"03", "HP3":"03", "NB_UG":"17", "NUMERO":"30", "RUE":"RUE DU NORD", "LOC":"VILLEURBANNE", "CODE_POSTAL":"69100", "LIBELLE":"BONNETERRE 30,R.DU NORD"}, "geometry":{"type":"Point", "coordinates":[4.8840262, 45.7637231]}},
{"type":"Feature", "properties":{"num_coordonnee":"000000151", "HP1":"0005", "HP2":"03", "HP3":"04", "NB_UG":"17", "NUMERO":"32", "RUE":"RUE DU NORD", "LOC":"VILLEURBANNE", "CODE_POSTAL":"69100", "LIBELLE":"BONNETERRE 32,R.DU NORD"}, "geometry":{"type":"Point", "coordinates":[4.883911599, 45.7632343]}}

] }
